LEDSAT                  
1 49069U 21073D   24233.18053505  .00035446  00000+0  12922-2 0  9991
2 49069  97.4328 303.9874 0018414  60.9788 299.3294 15.27926755166216
XW-3 (CAS-9)            
1 50466U 21131B   24233.48027723  .00001998  00000+0  65036-3 0  9995
2 50466  98.5271 318.2522 0003103 300.8141  59.2741 14.39840943139255
GREENCUBE               
1 53106U 22080B   24228.11242500 -.00000003  00000+0  00000+0 0  9992
2 53106  70.1424 172.0499 0007747  94.1050 266.0495  6.42557430 49057
CAS-5A (FO-118)         
1 54684U 22167C   24233.52223098  .00058792  00000+0  17031-2 0  9994
2 54684  97.6116  20.1090 0009855 276.8984  83.1138 15.35314889 94152
STRATOSAT-TK 1 (RS52S)  
1 57167U 23091B   24233.54577397  .00030264  00000+0  16078-2 0  9990
2 57167  97.6059 286.5316 0013457 253.3610 106.6144 15.15170917 63294
UMKA 1 (RS40S)          
1 57172U 23091G   24233.49499413  .00012207  00000+0  78045-3 0  9992
2 57172  97.6064 284.9149 0015194 260.4565  99.4946 15.08667216 63182
CUBESX-HSE 3 (RS42S)    
1 57178U 23091N   24233.51719692  .00015974  00000+0  97012-3 0  9994
2 57178  97.6095 285.5451 0015580 252.9133 107.0390 15.10479879 63213
MONITOR-4 (RS57S)       
1 57182U 23091S   24233.52692149  .00014526  00000+0  89692-3 0  9994
2 57182  97.6087 285.3148 0015757 254.3150 105.6341 15.09894751 63208
MONITOR-2 (RS39S)       
1 57184U 23091U   24233.52334616  .00009502  00000+0  60979-3 0  9993
2 57184  97.6093 285.3488 0012567 247.9180 112.0715 15.08629131 63205
SVYATOBOR 1 (RS60S)     
1 57187U 23091X   24233.47400184  .00013499  00000+0  82041-3 0  9998
2 57187  97.6099 285.8816 0011995 243.5410 116.4589 15.10534284 63233
VIZARD-METEO (RS38S)    
1 57189U 23091Z   24233.49713639  .00018039  00000+0  10437-2 0  9998
2 57189  97.6089 286.4241 0011199 240.1134 119.8984 15.12255720 63272
NANOZOND 1 (RS49S)      
1 57190U 23091AA  24233.44448014  .00026816  00000+0  14125-2 0  9997
2 57190  97.6058 287.1211 0009628 242.2631 117.7625 15.15538789 63321
POLYTECH-UNIVERSE 3 (R*)
1 57191U 23091AB  24233.52992582  .00009602  00000+0  61566-3 0  9997
2 57191  97.6062 285.0074 0017558 267.1932  92.7287 15.08597908 63193
UTMN 2 (RS27S)          
1 57203U 23091AP  24233.44483358  .00016636  00000+0  97959-3 0  9998
2 57203  97.6084 286.1832 0011560 241.0889 118.9182 15.11635427 63259
ARCCUBE 1 (RS25S)       
1 57205U 23091AR  24233.49951758  .00033566  00000+0  16883-2 0  9996
2 57205  97.6028 287.3844 0009683 242.8412 117.1834 15.17114468 63358
KUZGTU 1 (RS47S)        
1 57217U 23091AV  24233.53259191  .00015190  00000+0  92747-3 0  9993
2 57217  97.6076 285.3895 0015289 254.1239 105.8305 15.10298246 63212
HADES-D (SO-121)        
1 58567U 23174CY  24233.18437427  .00134399  00000+0  33129-2 0  9996
2 58567  97.4473 309.4791 0007870 348.7502  11.3566 15.40006291 43592
OOV-CUBE (TUBSAT-30)    
1 60240U 24128F   24233.55805854  .00006641  00000+0  59408-3 0  9998
2 60240  61.9995  17.5661 0011937 304.4345  55.5614 14.96705245  6244
CUTE-1 (CO-55)          
1 27844U 03031E   24233.55358415  .00001179  00000+0  53851-3 0  9994
2 27844  98.6789 239.6929 0008895 324.4240  35.6344 14.23394451 96975
CUBESAT XI-IV (CO-57)   
1 27848U 03031J   24232.81015747  .00001000  00000+0  46507-3 0  9997
2 27848  98.6819 239.1680 0009178 343.9313  16.1573 14.22815118 96632
CUBESAT XI-V            
1 28895U 05043F   24233.11007523  .00005597  00000+0  97810-3 0  9990
2 28895  98.2100   9.0738 0015974 152.6622 207.5426 14.68224295  4060
CUTE-1.7+APD II (CO-65) 
1 32785U 08021C   24233.17581484  .00011777  00000+0  10044-2 0  9991
2 32785  97.7586 198.0253 0013183 111.4278 248.8351 14.97813736885121
AAUSAT-II               
1 32788U 08021F   24233.45869180  .00047415  00000+0  20876-2 0  9999
2 32788  97.5971 214.0635 0001654 356.3941   3.7282 15.21679715888185
CANX-2                  
1 32790U 08021H   24233.44064807  .00010261  00000+0  91324-3 0  9990
2 32790  97.7713 196.9836 0013943 118.0722 242.1910 14.96178547884977
SEEDS II (CO-66)        
1 32791U 08021J   24233.44186256  .00019954  00000+0  13800-2 0  9994
2 32791  97.6958 204.3399 0008309  95.0812 265.1363 15.05713110886263
SWISSCUBE               
1 35932U 09051B   24233.20756621  .00003698  00000+0  79014-3 0  9999
2 35932  98.4613 117.7837 0008449 115.5232 244.6841 14.59424408791932
BEESAT-1                
1 35933U 09051C   24233.15637595  .00003161  00000+0  68157-3 0  9993
2 35933  98.4544 118.5556 0006589 124.8767 235.3053 14.59111372792039
ITUPSAT1                
1 35935U 09051E   24233.21723881  .00002883  00000+0  63707-3 0  9992
2 35935  98.4641 118.3673 0008701 133.1878 227.0048 14.58042013791621
TISAT 1                 
1 36799U 10035E   24232.24748857  .00017621  00000+0  12704-2 0  9993
2 36799  98.0815 124.4570 0005082  41.5416 318.6194 15.04207559766533
AEROCUBE 4.5A           
1 38767U 12048K   24232.10971641  .00031366  00000+0  15363-2 0  9996
2 38767  64.6590 111.5635 0109831 356.8721   3.1700 15.12813056269975
AEROCUBE 4.5B           
1 38768U 12048L   24233.52632797  .00056213  00000+0  16598-2 0  9999
2 38768  64.6538  27.0214 0087153 342.6244  17.1907 15.30886709271250
STRAND-1                
1 39090U 13009E   24233.51424291  .00001207  00000+0  42819-3 0  9992
2 39090  98.3822  60.0352 0009938  64.0193 296.2016 14.36202487601496
BRITE-AUSTRIA           
1 39091U 13009F   24233.50307365  .00000787  00000+0  28603-3 0  9991
2 39091  98.3866  59.2989 0011485  70.1566 290.0857 14.35894044601505
NEE-01 PEGASO           
1 39151U 13018B   24233.31215846  .00007767  00000+0  88163-3 0  9991
2 39151  98.0428 351.0995 0014606 187.1388 172.9621 14.86521676611504
ESTCUBE 1               
1 39161U 13021C   24233.17372905  .00005400  00000+0  77355-3 0  9993
2 39161  97.8243 297.6935 0009342  31.4764 328.7003 14.76934840606572
POPACS 1                
1 39268U 13055D   24233.27369017  .00042338  00000+0  69693-3 0  9996
2 39268  80.9774  77.3676 0384873 245.7171 110.3404 14.98289932571585
POPACS 2                
1 39269U 13055E   24233.16455042  .00025103  00000+0  56432-3 0  9997
2 39269  81.0042 169.7921 0542161 127.3272 237.8623 14.59245165566149
POPACS 3                
1 39270U 13055F   24233.41277158  .00012563  00000+0  34423-3 0  9999
2 39270  81.0061 222.3492 0619033 274.5449  78.5322 14.38914865562896
ZACUBE-1 (TSHEPISOSAT)  
1 39417U 13066B   24233.13204198  .00011402  00000+0  11515-2 0  9994
2 39417  97.7376 187.7176 0047825 310.3456  49.3590 14.90354577581100
WNISAT-1                
1 39423U 13066H   24233.50872031  .00003914  00000+0  74830-3 0  9998
2 39423  97.6697  62.6293 0169566 166.8703 193.6994 14.55552305570007
TRITON-1                
1 39427U 13066M   24233.51934062  .00006774  00000+0  93825-3 0  9998
2 39427  97.8376 149.4537 0099953 234.2689 124.9191 14.74886571575880
DELFI-N3XT              
1 39428U 13066N   24233.27716205  .00012423  00000+0  15345-2 0  9997
2 39428  97.8341 149.9659 0096681 240.0083 119.1507 14.79650658575743
GOMX-1                  
1 39430U 13066Q   24233.55244943  .00006370  00000+0  10431-2 0  9991
2 39430  97.7227 104.0291 0140151  48.5915 312.7235 14.64713828572467
CUBEBUG-2 (LO-74)       
1 39440U 13066AA  24233.10956977  .00010686  00000+0  12263-2 0  9990
2 39440  97.8146 175.4365 0070618  66.0470 294.8119 14.84227097579013
NEE-02 KRYSAOR          
1 39441U 13066AB  24232.57054517  .00006998  00000+0  87263-3 0  9994
2 39441  97.8240 170.5299 0075447  89.9575 271.0283 14.80701805577316
FUNCUBE-1 (AO-73)       
1 39444U 13066AE  24233.43119378  .00016049  00000+0  14962-2 0  9993
2 39444  97.7234 191.3117 0044247 287.8742  71.7655 14.93565707580281
UWE-3                   
1 39446U 13066AG  24232.39236321  .00011954  00000+0  12949-2 0  9990
2 39446  97.7839 180.8218 0059583  13.8176 346.4654 14.87059513578099
BRITE-CA1 (TORONTO)     
1 40020U 14033L   24233.36379792  .00003754  00000+0  60649-3 0  9993
2 40020  97.8861   8.2678 0081523 246.9168 112.3430 14.69743401544403
DUCHIFAT-1              
1 40021U 14033M   24232.78143919  .00025690  00000+0  15909-2 0  9990
2 40021  98.0936 219.9923 0010486 235.2349 124.7892 15.09724642553710
NANOSATC-BR1            
1 40024U 14033Q   24232.60603319  .00019797  00000+0  13881-2 0  9997
2 40024  98.0681 207.4321 0004150 337.7468  22.3576 15.05227504552784
QB50P1                  
1 40025U 14033R   24232.84206980  .00015936  00000+0  12434-2 0  9991
2 40025  98.0483 195.7523 0012580 328.6844  31.3629 15.01181432552932
QB50P2                  
1 40032U 14033Y   24233.13382809  .00013972  00000+0  11327-2 0  9995
2 40032  98.0072 187.3339 0007850 295.5349  64.5061 14.99782417552778
PERSEUS-M2              
1 40037U 14033AD  24233.06317772  .00004851  00000+0  49618-3 0  9990
2 40037  97.9261 164.0967 0012627 352.4123   7.6902 14.90963117551849
PERSEUS-M1              
1 40039U 14033AF  24233.50023869  .00005451  00000+0  55933-3 0  9996
2 40039  97.9058 160.4054 0012363 351.1186   8.9811 14.90775588551772
POLYITAN-1              
1 40042U 14033AJ  24232.85015842  .00022244  00000+0  15866-2 0  9998
2 40042  98.0745 199.8381 0009867 278.5756  81.4350 15.04528016552919
TIGRISAT                
1 40043U 14033AK  24232.38864237  .00006957  00000+0  91136-3 0  9995
2 40043  97.7015  32.4288 0055917  97.5178 263.2391 14.79550749546803
AEROCUBE 6A             
1 40045U 14033AM  24233.45143869  .00012875  00000+0  14883-2 0  9996
2 40045  97.6739  44.4505 0050157  70.9657 289.6982 14.84773611547563
AEROCUBE 6B             
1 40046U 14033AN  24233.44881410  .00012066  00000+0  13666-2 0  9997
2 40046  97.6708  43.2110 0048745  66.1064 294.5247 14.85673825547766
